[{"OBJECT_NAME":"STARLINK-32617","OBJECT_ID":"2024-217V","EPOCH":"2026-03-09T15:06:25.002720","MEAN_MOTION":15.30191631,"ECCENTRICITY":0.0001102,"INCLINATION":53.1607,"RA_OF_ASC_NODE":181.2847,"ARG_OF_PERICENTER":83.9922,"MEAN_ANOMALY":276.1205,"EPHEMERIS_TYPE":0,"CLASSIFICATION_TYPE":"U","NORAD_CAT_ID":62076,"ELEMENT_SET_NO":999,"REV_AT_EPOCH":7359,"BSTAR":0.00097861,"MEAN_MOTION_DOT":0.00028729,"MEAN_MOTION_DDOT":0},{"OBJECT_NAME":"TEVEL2-2","OBJECT_ID":"2025-052K","EPOCH":"2026-03-09T15:33:48.895776","MEAN_MOTION":15.30343745,"ECCENTRICITY":0.0004693,"INCLINATION":97.3987,"RA_OF_ASC_NODE":324.77,"ARG_OF_PERICENTER":105.793,"MEAN_ANOMALY":254.3828,"EPHEMERIS_TYPE":0,"CLASSIFICATION_TYPE":"U","NORAD_CAT_ID":63219,"ELEMENT_SET_NO":999,"REV_AT_EPOCH":5485,"BSTAR":0.00069428,"MEAN_MOTION_DOT":0.00020339,"MEAN_MOTION_DDOT":0}]
